$$SOE
2460721.500000000, A.D. 2025-Feb-15 00:00:00.0000, 3.211038745126972E+08, 1.591786653951752E+07, 1.463725365165342E+07,
2460728.500000000, A.D. 2025-Feb-22 00:00:00.0000, 3.209772224649504E+08, 2.861301883897164E+07, 1.809825591594626E+07,
2460735.500000000, A.D. 2025-Mar-01 00:00:00.0000, 3.203871998768654E+08, 4.126687888614836E+07, 2.153313697227439E+07,
2460742.500000000, A.D. 2025-Mar-08 00:00:00.0000, 3.193388998038814E+08, 5.386172921790162E+07, 2.493722293323141E+07,
2460749.500000000, A.D. 2025-Mar-15 00:00:00.0000, 3.178382671415998E+08, 6.638030917244288E+07, 2.830599136498707E+07,
2460756.500000000, A.D. 2025-Mar-22 00:00:00.0000, 3.158920485357983E+08, 7.880585891715553E+07, 3.163508189898007E+07,
2460763.500000000, A.D. 2025-Mar-29 00:00:00.0000, 3.135077413621282E+08, 9.112215634471981E+07, 3.492030513105804E+07,
2460770.500000000, A.D. 2025-Apr-05 00:00:00.0000, 3.106935426704258E+08, 1.033135499233553E+08, 3.815765003749751E+07,
2460777.500000000, A.D. 2025-Apr-12 00:00:00.0000, 3.074582967231225E+08, 1.153649876210175E+08, 4.134329011416695E+07,
2460784.500000000, A.D. 2025-Apr-19 00:00:00.0000, 3.038114414717267E+08, 1.272620410964398E+08, 4.447358822087089E+07,
2460791.500000000, A.D. 2025-Apr-26 00:00:00.0000, 2.997629547404360E+08, 1.389909250806586E+08, 4.754510013958973E+07,
2460798.500000000, A.D. 2025-May-03 00:00:00.0000, 2.953233006890081E+08, 1.505385121410562E+08, 5.055457689932366E+07,
2460805.500000000, A.D. 2025-May-10 00:00:00.0000, 2.905033769995694E+08, 1.618923430486732E+08, 5.349896593655827E+07,
2460812.500000000, A.D. 2025-May-17 00:00:00.0000, 2.853144631956928E+08, 1.730406329521187E+08, 5.637541116303213E+07,
2460819.500000000, A.D. 2025-May-24 00:00:00.0000, 2.797681705943068E+08, 1.839722735733094E+08, 5.918125200455537E+07,
2460826.500000000, A.D. 2025-May-31 00:00:00.0000, 2.738763945901424E+08, 1.946768320224939E+08, 6.191402148561724E+07,
2460833.500000000, A.D. 2025-Jun-07 00:00:00.0000, 2.676512691043006E+08, 2.051445477315715E+08, 6.457144358225696E+07,
2460840.500000000, A.D. 2025-Jun-14 00:00:00.0000, 2.611051210149779E+08, 2.153663271442108E+08, 6.715143009312643E+07,
2460847.500000000, A.D. 2025-Jun-21 00:00:00.0000, 2.542504259394747E+08, 2.253337332055545E+08, 6.965207674146208E+07,
2460854.500000000, A.D. 2025-Jun-28 00:00:00.0000, 2.470997686122585E+08, 2.350389717176690E+08, 7.207165845263390E+07,
2460861.500000000, A.D. 2025-Jul-05 00:00:00.0000, 2.396658064131757E+08, 2.444748770089250E+08, 7.440862420387876E+07,
2460868.500000000, A.D. 2025-Jul-12 00:00:00.0000, 2.319612348932763E+08, 2.536348963975989E+08, 7.666159156858605E+07,
2460875.500000000, A.D. 2025-Jul-19 00:00:00.0000, 2.239987554996497E+08, 2.625130731480728E+08, 7.882934096618825E+07,
2460882.500000000, A.D. 2025-Jul-26 00:00:00.0000, 2.157910456959984E+08, 2.711040281209423E+08, 8.091080966442861E+07,
2460889.500000000, A.D. 2025-Aug-02 00:00:00.0000, 2.073507315091163E+08, 2.794029403792948E+08, 8.290508559508844E+07,
2460896.500000000, A.D. 2025-Aug-09 00:00:00.0000, 1.986903624705712E+08, 2.874055269583357E+08, 8.481140103916116E+07,
2460903.500000000, A.D. 2025-Aug-16 00:00:00.0000, 1.898223889597353E+08, 2.951080219372183E+08, 8.662912622187212E+07,
2460910.500000000, A.D. 2025-Aug-23 00:00:00.0000, 1.807591421550522E+08, 3.025071550128416E+08, 8.835776283803993E+07,
2460917.500000000, A.D. 2025-Aug-30 00:00:00.0000, 1.715128168252003E+08, 3.096001304562709E+08, 8.999693757661560E+07,
2460924.500000000, A.D. 2025-Sep-06 00:00:00.0000, 1.620954554360057E+08, 3.163846076002587E+08, 9.154639589163402E+07,
2460931.500000000, A.D. 2025-Sep-13 00:00:00.0000, 1.525189317857858E+08, 3.228586805077635E+08, 9.300599600179112E+07,
2460938.500000000, A.D. 2025-Sep-20 00:00:00.0000, 1.427949373282442E+08, 3.290208553045046E+08, 9.437570271824814E+07,
2460945.500000000, A.D. 2025-Sep-27 00:00:00.0000, 1.329349711360129E+08, 3.348700283949221E+08, 9.565558128713113E+07,
2460952.500000000, A.D. 2025-Oct-04 00:00:00.0000, 1.229503313778344E+08, 3.404054661850678E+08, 9.684579149589020E+07,
2460959.500000000, A.D. 2025-Oct-11 00:00:00.0000, 1.128521078224712E+08, 3.456267854406569E+08, 9.794658201637122E+07,
2460966.500000000, A.D. 2025-Oct-18 00:00:00.0000, 1.026511755412594E+08, 3.505339340659745E+08, 9.895828494857846E+07,
2460973.500000000, A.D. 2025-Oct-25 00:00:00.0000, 9.235818983962813E+07, 3.551271723639237E+08, 9.988131056267253E+07,
2460980.500000000, A.D. 2025-Nov-01 00:00:00.0000, 8.198358235122466E+07, 3.594070548321127E+08, 1.007161422437534E+08,
2460987.500000000, A.D. 2025-Nov-08 00:00:00.0000, 7.153755822756647E+07, 3.633744124940294E+08, 1.014633316383891E+08,
2460994.500000000, A.D. 2025-Nov-15 00:00:00.0000, 6.103009447408093E+07, 3.670303357291831E+08, 1.021234939873004E+08,
2461001.500000000, A.D. 2025-Nov-22 00:00:00.0000, 5.047093974314432E+07, 3.703761578380560E+08, 1.026973036264939E+08,
2461008.500000000, A.D. 2025-Nov-29 00:00:00.0000, 3.986961534510487E+07, 3.734134404873766E+08, 1.031854897637966E+08,
2461015.500000000, A.D. 2025-Dec-06 00:00:00.0000, 2.923541512164226E+07, 3.761439609017956E+08, 1.035888327258210E+08,
2461022.500000000, A.D. 2025-Dec-13 00:00:00.0000, 1.857740453805398E+07, 3.785696974235098E+08, 1.039081603538738E+08,
2461029.500000000, A.D. 2025-Dec-20 00:00:00.0000, 7.904422412439235E+06, 3.806928144576574E+08, 1.041443443081205E+08,
2461036.500000000, A.D. 2025-Dec-27 00:00:00.0000, -2.774915856697076E+06, 3.825156493883669E+08, 1.042982965862002E+08,
2461043.500000000, A.D. 2026-Jan-03 00:00:00.0000, -1.345221508424782E+07, 3.840407008353640E+08, 1.043709663328567E+08,
2461050.500000000, A.D. 2026-Jan-10 00:00:00.0000, -2.411929706244900E+07, 3.852706175558602E+08, 1.043633368683073E+08,
2461057.500000000, A.D. 2026-Jan-17 00:00:00.0000, -3.476819711626997E+07, 3.862081878838679E+08, 1.042764229006789E+08,
2461064.500000000, A.D. 2026-Jan-24 00:00:00.0000, -4.539116042097247E+07, 3.868563297126391E+08, 1.041112679116179E+08,
2461071.500000000, A.D. 2026-Jan-31 00:00:00.0000, -5.598063810213929E+07, 3.872180809947345E+08, 1.038689417065326E+08,
2461078.500000000, A.D. 2026-Feb-07 00:00:00.0000, -6.652928309603493E+07, 3.872965906830283E+08, 1.035505381129018E+08,
2461085.500000000, A.D. 2026-Feb-14 00:00:00.0000, -7.702994555296531E+07, 3.870951100768549E+08, 1.031571727954850E+08,
2461092.500000000, A.D. 2026-Feb-21 00:00:00.0000, -8.747566742896819E+07, 3.866169851294313E+08, 1.026899811932320E+08,
2461099.500000000, A.D. 2026-Feb-28 00:00:00.0000, -9.785967738041350E+07, 3.858656508502638E+08, 1.021501167652610E+08,
2461106.500000000, A.D. 2026-Mar-07 00:00:00.0000, -1.081753880443733E+08, 3.848446258313053E+08, 1.015387495680714E+08,
2461113.500000000, A.D. 2026-Mar-14 00:00:00.0000, -1.184163929522156E+08, 3.835575045375853E+08, 1.008570647099734E+08,
2461120.500000000, A.D. 2026-Mar-21 00:00:00.0000, -1.285764613188398E+08, 3.820079502384989E+08, 1.001062607499203E+08,
2461127.500000000, A.D. 2026-Mar-28 00:00:00.0000, -1.386495327367025E+08, 3.801996895910686E+08, 9.928754830408534E+07,
2461134.500000000, A.D. 2026-Apr-04 00:00:00.0000, -1.486297123942795E+08, 3.781365078892902E+08, 9.840214883034395E+07,
2461141.500000000, A.D. 2026-Apr-11 00:00:00.0000, -1.585112665602401E+08, 3.758222445991252E+08, 9.745129353005224E+07,
2461148.500000000, A.D. 2026-Apr-18 00:00:00.0000, -1.682886181875517E+08, 3.732607891535141E+08, 9.643622234648933E+07,
2461155.500000000, A.D. 2026-Apr-25 00:00:00.0000, -1.779563426027876E+08, 3.704560770042402E+08, 9.535818305166583E+07,
2461162.500000000, A.D. 2026-May-02 00:00:00.0000, -1.875091632585579E+08, 3.674120858834184E+08, 9.421843041075031E+07,
2461169.500000000, A.D. 2026-May-09 00:00:00.0000, -1.969419474311112E+08, 3.641328321902198E+08, 9.301822540134102E+07,
2461176.500000000, A.D. 2026-May-16 00:00:00.0000, -2.062497014911860E+08, 3.606223676221468E+08, 9.175883445814094E+07,
2461183.500000000, A.D. 2026-May-23 00:00:00.0000, -2.154275657035823E+08, 3.568847770547305E+08, 9.044152881655568E+07,
2461190.500000000, A.D. 2026-May-30 00:00:00.0000, -2.244708106424579E+08, 3.529241779744344E+08, 8.906758416842170E+07,
2461197.500000000, A.D. 2026-Jun-06 00:00:00.0000, -2.333748355450841E+08, 3.487447181790324E+08, 8.763828038839170E+07,
2461204.500000000, A.D. 2026-Jun-13 00:00:00.0000, -2.421351649415294E+08, 3.443505719298711E+08, 8.615490100717989E+07,
2461211.500000000, A.D. 2026-Jun-20 00:00:00.0000, -2.507474440671996E+08, 3.397459374707962E+08, 8.461873271404216E+07,
2461218.500000000, A.D. 2026-Jun-27 00:00:00.0000, -2.592074347596421E+08, 3.349350355659238E+08, 8.303106501378846E+07,
2461225.500000000, A.D. 2026-Jul-04 00:00:00.0000, -2.675110118398479E+08, 3.299221082710132E+08, 8.139318997116303E+07,
2461232.500000000, A.D. 2026-Jul-11 00:00:00.0000, -2.756541597245015E+08, 3.247114177949193E+08, 7.970640200461662E+07,
2461239.500000000, A.D. 2026-Jul-18 00:00:00.0000, -2.836329691772883E+08, 3.193072454658484E+08, 7.797199771960995E+07,
2461246.500000000, A.D. 2026-Jul-25 00:00:00.0000, -2.914436341756306E+08, 3.137138907950116E+08, 7.619127577639595E+07,
2461253.500000000, A.D. 2026-Aug-01 00:00:00.0000, -2.990824488453398E+08, 3.079356705801864E+08, 7.436553678122230E+07,
2461260.500000000, A.D. 2026-Aug-08 00:00:00.0000, -3.065458042486128E+08, 3.019769180045176E+08, 7.249608317586035E+07,
2461267.500000000, A.D. 2026-Aug-15 00:00:00.0000, -3.138301846105158E+08, 2.958419821725419E+08, 7.058421912196876E+07,
2461274.500000000, A.D. 2026-Aug-22 00:00:00.0000, -3.209321637458748E+08, 2.895352292970293E+08, 6.863125054802309E+07,
2461281.500000000, A.D. 2026-Aug-29 00:00:00.0000, -3.278484039771767E+08, 2.830610441583749E+08, 6.663848545517483E+07,
2461288.500000000, A.D. 2026-Sep-05 00:00:00.0000, -3.345756554083202E+08, 2.764238289633017E+08, 6.460723405021925E+07,
$$EOE